[
    {
        "Altitude(m)": 558185.6607344926,
        "Argument of Periapsis(deg)": 0.033114955553567506,
        "Eccentricity": 0.0,
        "Inclination(deg)": 53.0,
        "Latitude(deg)": -17.76235254069859,
        "Longitude(deg)": -12.878501047648918,
        "Mean Anomaly(deg)": -22.269235662112024,
        "RAAN(deg)": 104.95071684264009,
        "Satellite Name": "Starlink Shell 1 479",
        "Satellite Number": 479,
        "Semi-Major Axis(m)": 6931778.249405717,
        "Time(s)": 950
    },
    {
        "Altitude(m)": 558036.3774667573,
        "Argument of Periapsis(deg)": 0.03346353403307874,
        "Eccentricity": 0.0,
        "Inclination(deg)": 53.0,
        "Latitude(deg)": -17.273598157868307,
        "Longitude(deg)": -12.506249269629038,
        "Mean Anomaly(deg)": -21.64240445855537,
        "RAAN(deg)": 104.95019807256261,
        "Satellite Name": "Starlink Shell 1 479",
        "Satellite Number": 479,
        "Semi-Major Axis(m)": 6931778.249405717,
        "Time(s)": 960
    },
    {
        "Altitude(m)": 557888.8516209093,
        "Argument of Periapsis(deg)": 0.03381211251258998,
        "Eccentricity": 0.0,
        "Inclination(deg)": 53.0,
        "Latitude(deg)": -16.78395888618028,
        "Longitude(deg)": -12.136160308001996,
        "Mean Anomaly(deg)": -21.01557325499865,
        "RAAN(deg)": 104.94967930248514,
        "Satellite Name": "Starlink Shell 1 479",
        "Satellite Number": 479,
        "Semi-Major Axis(m)": 6931778.249405717,
        "Time(s)": 970
    },
    {
        "Altitude(m)": 557743.1323863979,
        "Argument of Periapsis(deg)": 0.034160690992101214,
        "Eccentricity": 0.0,
        "Inclination(deg)": 53.0,
        "Latitude(deg)": -16.293464911189307,
        "Longitude(deg)": -11.76816187349091,
        "Mean Anomaly(deg)": -20.388742051441902,
        "RAAN(deg)": 104.94916053240767,
        "Satellite Name": "Starlink Shell 1 479",
        "Satellite Number": 479,
        "Semi-Major Axis(m)": 6931778.249405717,
        "Time(s)": 980
    },
    {
        "Altitude(m)": 557599.2679992667,
        "Argument of Periapsis(deg)": 0.034509269471612446,
        "Eccentricity": 0.0,
        "Inclination(deg)": 53.0,
        "Latitude(deg)": -15.802145958349326,
        "Longitude(deg)": -11.402182040920275,
        "Mean Anomaly(deg)": -19.76191084788523,
        "RAAN(deg)": 104.9486417623302,
        "Satellite Name": "Starlink Shell 1 479",
        "Satellite Number": 479,
        "Semi-Major Axis(m)": 6931778.249405717,
        "Time(s)": 990
    }
]